{
  "norad_id": 68662,
  "name": "STARLINK-37195",
  "history": [
    {
      "epoch": "2026-04-22T13:12:39.150432Z",
      "apogee_km": 345.0514465784763,
      "perigee_km": 343.04554642632047,
      "latitude_deg": -7.713709359317231e-06,
      "longitude_deg": -65.1839515278766,
      "height_km": 346.8462902922854,
      "semi_major_axis_km": 6722.185496502398,
      "eccentricity": 0.0001492,
      "inclination_deg": 97.2842,
      "raan_deg": 343.5896,
      "arg_perigee_deg": 68.458,
      "mean_anomaly_deg": 291.6844,
      "mean_motion_rev_day": 15.75204788
    }
  ]
}