STARLINK-37195          
1 68662U 26077A   26112.55045313  .00117408  00000+0  77674-3 0  9992
2 68662  97.2842 343.5896 0001492  68.4580 291.6844 15.75204788  1818
